     2              NAVIGATION DATA                         RINEX VERSION / TYPE
CCRINEXN V1.5.5 UX  BKG, FRANKFURT/MAIN 19-MAR- 1 13:25     PGM / RUN BY / DATE 
CONCATENATED NAVIGATIONFILES FOR IGS                        COMMENT             
     .2608D-07   .7451D-08  -.1192D-06   .0000D+00          ION ALPHA           
     .1290D+06   .0000D+00  -.2621D+06   .1311D+06          ION BETA            
    -.204890966415D-07 -.630606677987D-13   319488       82 DELTA-UTC: A0,A1,T,W
    13                                                      LEAP SECONDS        
                                                            END OF HEADER       
 4  1  3 18 10  0   .0  .694128684700D-03  .409272615798D-11  .000000000000D+00
     .163000000000D+03  .545625000000D+02  .396302221864D-08  .268082504696D+01
     .287964940071D-05  .556994834915D-02  .670179724693D-05  .515367344856D+04
     .360000000000D+05 -.558793544769D-08  .287503771947D+01  .484287738800D-07
     .974812204201D+00  .259187500000D+03 -.439360865349D+00 -.783318342639D-08
     .278583032673D-10  .100000000000D+01  .110600000000D+04  .000000000000D+00
     .200000000000D+01  .000000000000D+00 -.605359673500D-08  .419000000000D+03
     .288000000000D+05  .000000000000D+00  .000000000000D+00  .000000000000D+00
 5  1  3 18 10  0   .0  .291460193694D-03  .147792889038D-11  .000000000000D+00
     .238000000000D+03  .172500000000D+02  .529700635586D-08  .238447460577D+01
     .754371285439D-06  .272987876087D-02  .676326453686D-05  .515372404671D+04
     .360000000000D+05 -.800937414169D-07  .701547215949D+00  .931322574616D-08
     .936353657608D+00  .235218750000D+03  .426560950970D+00 -.829284543030D-08
    -.169292766009D-09  .100000000000D+01  .110600000000D+04  .000000000000D+00
     .280000000000D+01  .000000000000D+00 -.465661287308D-08  .238000000000D+03
     .288000000000D+05  .000000000000D+00  .000000000000D+00  .000000000000D+00
 6  1  3 18 10  0   .0 -.309199094772D-06 -.113686837722D-12  .000000000000D+00
     .150000000000D+02  .360000000000D+02  .470733893670D-08 -.269122752681D+01
     .176578760147D-05  .655045756139D-02  .806525349617D-05  .515379545784D+04
     .360000000000D+05  .447034835815D-07  .180601811430D+01 -.763684511185D-07
     .944955212149D+00  .214125000000D+03 -.231747887817D+01 -.799747598412D-08
    -.333942481473D-09  .100000000000D+01  .110600000000D+04  .000000000000D+00
     .400000000000D+01  .000000000000D+00 -.512227416039D-08  .271000000000D+03
     .288000000000D+05  .000000000000D+00  .000000000000D+00  .000000000000D+00
 7  1  3 18 10  0   .0  .578982755542D-03  .568434188608D-11  .000000000000D+00
     .227000000000D+03  .258437500000D+02  .487198865217D-08 -.723269552543D+00
     .138953328133D-05  .114925820380D-01  .783614814282D-05  .515368281174D+04
     .360000000000D+05 -.372529029846D-07  .177562487646D+01  .227242708206D-06
     .946724108322D+00  .223281250000D+03 -.202883007600D+01 -.838570644119D-08
    -.399659504565D-09  .100000000000D+01  .110600000000D+04  .000000000000D+00
     .280000000000D+01  .000000000000D+00 -.232830643654D-08  .483000000000D+03
     .288180000000D+05  .000000000000D+00  .000000000000D+00  .000000000000D+00
 8  1  3 18 10  0   .0  .721216201782D-05  .484305928694D-10  .000000000000D+00
     .205000000000D+03 -.287500000000D+01  .470841040991D-08 -.244327924146D+01
     .745058059692D-08  .786710728425D-02  .891275703907D-05  .515363736153D+04
     .360000000000D+05 -.558793544769D-08 -.261023251729D+00  .122934579849D-06
     .958872842754D+00  .207312500000D+03  .198798704023D+01 -.787068498848D-08
     .288226291496D-09  .000000000000D+00  .110600000000D+04  .100000000000D+01
     .200000000000D+01  .000000000000D+00 -.465661287308D-08  .419840000000D+06
     .288780000000D+05  .000000000000D+00  .000000000000D+00  .000000000000D+00
 9  1  3 18 10  0   .0 -.359481200576D-04 -.181898940355D-11  .000000000000D+00
     .700000000000D+02 -.490625000000D+01  .499092217766D-08 -.296968730205D+01
    -.402331352234D-06  .114599606022D-01  .884383916855D-05  .515374086571D+04
     .360000000000D+05 -.447034835815D-07 -.311786751924D+00 -.223517417908D-06
     .944930497611D+00  .198937500000D+03  .693060465367D+00 -.798711840983D-08
     .266082511976D-09  .100000000000D+01  .110600000000D+04  .000000000000D+00
     .280000000000D+01  .000000000000D+00 -.605359673500D-08  .326000000000D+03
     .288000000000D+05  .000000000000D+00  .000000000000D+00  .000000000000D+00
10  1  3 18 10  0   .0  .112736597657D-05  .682121026330D-12  .000000000000D+00
     .219000000000D+03 -.267812500000D+02  .415945897245D-08  .427864811818D+00
    -.128149986267D-05  .450756715145D-02  .410526990890D-05  .515380864143D+04
     .360000000000D+05  .819563865662D-07 -.238478128021D+01 -.130385160446D-07
     .977507384992D+00  .307500000000D+03 -.240727778135D-01 -.809319425688D-08
     .150006248362D-09  .100000000000D+01  .110600000000D+04  .000000000000D+00
     .280000000000D+01  .000000000000D+00 -.186264514923D-08  .219000000000D+03
     .327000000000D+05  .000000000000D+00  .000000000000D+00  .000000000000D+00
11  1  3 18 10  0   .0  .148732215166D-05  .000000000000D+00  .000000000000D+00
     .250000000000D+02  .631562500000D+02  .511557022689D-08  .403989387505D+00
     .334531068802D-05  .116185052320D-02  .654533505440D-05  .515374080467D+04
     .360000000000D+05  .204890966415D-07  .280694316484D+01  .894069671631D-07
     .922750320323D+00  .233906250000D+03 -.270072032908D+01 -.846213819631D-08
     .105361531588D-09  .000000000000D+00  .110600000000D+04  .100000000000D+01
     .280000000000D+01  .000000000000D+00 -.838190317154D-08  .512000000000D+05
     .334980000000D+05  .000000000000D+00  .000000000000D+00  .000000000000D+00
13  1  3 18 10  0   .0 -.652391463518D-06 -.227373675443D-12  .000000000000D+00
     .250000000000D+02 -.766875000000D+02  .443732768965D-08  .138863409087D+01
    -.416673719883D-05  .201108620968D-02  .753253698349D-05  .515380352974D+04
     .360000000000D+05  .447034835815D-07 -.133865002611D+01  .130385160446D-07
     .967582152915D+00  .242218750000D+03 -.215551452457D+00 -.797033199632D-08
     .664313385605D-10  .000000000000D+00  .110600000000D+04  .100000000000D+01
     .100000000000D+01  .000000000000D+00 -.116415321827D-07  .000000000000D+00
     .360000000000D+05  .000000000000D+00  .000000000000D+00  .000000000000D+00
14  1  3 18 10  0   .0 -.954228453338D-04 -.250111042988D-11  .000000000000D+00
     .000000000000D+00 -.860312500000D+02  .453126017375D-08 -.214169465786D+01
    -.434741377831D-05  .316012871917D-02  .842660665512D-05  .515438088036D+04
     .360000000000D+05 -.106170773506D-06 -.134187432243D+01  .204890966415D-07
     .962280204250D+00  .219656250000D+03 -.561746783694D+00 -.797283210046D-08
     .125362364703D-09  .100000000000D+01  .110600000000D+04  .000000000000D+00
     .400000000000D+01  .000000000000D+00 -.102445483208D-07  .512000000000D+03
     .288000000000D+05  .000000000000D+00  .000000000000D+00  .000000000000D+00
15  1  3 18 10  0   .0  .112322159112D-04  .432009983342D-11  .000000000000D+00
     .240000000000D+02  .647812500000D+02  .390194824609D-08 -.207161778633D+01
     .346638262272D-05  .783318909816D-02  .573322176933D-05  .515310834694D+04
     .360000000000D+05  .135973095894D-06  .291947257900D+01  .540167093277D-07
     .981099306770D+00  .277718750000D+03  .159464289798D+01 -.782746890264D-08
     .123933733766D-09  .100000000000D+01  .110600000000D+04  .000000000000D+00
     .400000000000D+01  .600000000000D+02 -.279396772385D-08  .280000000000D+03
     .339180000000D+05  .400000000000D+01  .000000000000D+00  .000000000000D+00
17  1  3 18 10  0   .0 -.303297303617D-03 -.181898940355D-11  .000000000000D+00
     .203000000000D+03  .632500000000D+02  .380837291973D-08  .310476415469D+01
     .336579978466D-05  .125634543365D-01  .582449138165D-05  .515369211578D+04
     .360000000000D+05 -.162050127983D-06  .295925831267D+01 -.204890966415D-07
     .982869003159D+00  .278687500000D+03  .308150389621D+01 -.773710799589D-08
     .158935191717D-09  .100000000000D+01  .110600000000D+04  .000000000000D+00
     .280000000000D+01  .000000000000D+00 -.232830643654D-08  .203000000000D+03
     .339000000000D+05  .000000000000D+00  .000000000000D+00  .000000000000D+00
18  1  3 18 10  0   .0 -.561992637813D-04  .108002495836D-10  .000000000000D+00
     .160000000000D+02 -.380312500000D+02  .460162024738D-08  .245883491607D+01
    -.208429992199D-05  .154476717580D-02  .376999378204D-05  .515361652183D+04
     .360000000000D+05 -.111758708954D-07 -.233393792078D+01  .540167093277D-07
     .960052637909D+00  .302625000000D+03  .258563912789D+01 -.830177437365D-08
     .107861635727D-09  .000000000000D+00  .110600000000D+04  .100000000000D+01
     .400000000000D+01  .000000000000D+00 -.745058059692D-08  .327680000000D+05
     .288180000000D+05  .000000000000D+00  .000000000000D+00  .000000000000D+00
19  1  3 18 10  0   .0  .468642450869D-03  .113686837722D-10  .000000000000D+00
     .670000000000D+02 -.154375000000D+02  .531450708484D-08  .304505242494D+01
    -.808387994766D-06  .671622704249D-02  .922195613384D-05  .515365747261D+04
     .360000000000D+05 -.540167093277D-07 -.376007897393D+00 -.134110450745D-06
     .928803078045D+00  .186406250000D+03 -.256110549285D+01 -.817176895841D-08
     .233938315898D-09  .100000000000D+01  .110600000000D+04  .000000000000D+00
     .800000000000D+01  .600000000000D+02 -.325962901115D-08  .579000000000D+03
     .353580000000D+05  .000000000000D+00  .000000000000D+00  .000000000000D+00
